satname,norad_id,inclination_deg,eccentricity,mean_motion_rev_per_day,perigee_km,apogee_km,l1,l2
STARLINK-1008,44714,53.0546,0.000192,15.06411912,545.8453897009722,548.5047095280233,1 44714U 19074B   25315.27571609 -.00000669  00000+0 -25999-4 0  9994,2 44714  53.0546 358.1890 0001920 119.9812 240.1368 15.06411912330901
STARLINK-1010,44716,53.0354,0.0003758,16.1723576,224.5855076601465,229.54997954543887,1 44716U 19074D   25315.87769809  .01402390  15916-2  89901-3 0  9996,2 44716  53.0354 272.5544 0003758 131.4951 228.6409 16.17235760332131
STARLINK-1011,44717,53.045,0.0004872,15.91805325,293.97865863863626,300.48313711833,1 44717U 19074E   25315.33336806  .00332157  52745-4  99615-3 0  9993,2 44717  53.0450 334.0258 0004872  12.6967  81.3407 15.91805325  5927
STARLINK-1012,44718,53.0547,0.0001152,15.06440056,546.2910087761184,547.8865807992379,1 44718U 19074F   25314.45742924  .00010752  00000+0  73880-3 0  9990,2 44718  53.0547   1.8732 0001152  85.3636 274.7484 15.06440056330778
STARLINK-1017,44723,53.0508,0.0002612,15.15764647,516.85669022007,520.4595759976064,1 44723U 19074L   25315.29642145  .00055379  00000+0  28620-2 0  9998,2 44723  53.0508 354.0225 0002612 335.2297  24.8570 15.15764647330969
STARLINK-1019,44724,53.055,0.0001274,15.33995793,463.03321625333865,464.7765685275199,1 44724U 19074M   25315.33336806  .01572426  00000+0  42932-1 0  9997,2 44724  53.0550 356.3882 0001274  77.8027  95.6114 15.33995793  5613
STARLINK-1020,44725,53.0549,0.0001938,15.06402827,545.86076273261,548.5450244753702,1 44725U 19074N   25315.18910362  .00002027  00000+0  15491-3 0  9992,2 44725  53.0549  18.5880 0001938 103.7233 256.3972 15.06402827330601
STARLINK-1031,44736,53.05,0.0006089,15.49982367,412.64017903005606,420.9150260330198,1 44736U 19074Z   25315.24785549  .00126082  00000+0  21848-2 0  9998,2 44736  53.0500 344.4087 0006089 315.5777  44.4742 15.49982367331104
STARLINK-1036,44741,53.0543,0.0001312,15.06398028,546.3089953170893,548.1262083646125,1 44741U 19074AE  25315.21858545 -.00001283  00000+0 -67226-4 0  9997,2 44741  53.0543  18.4543 0001312  96.9747 263.1391 15.06398028330616
STARLINK-1039,44744,53.0516,0.0002222,15.13779918,523.1513051462562,526.2189192929272,1 44744U 19074AH  25315.23599254  .00029093  00000+0  16038-2 0  9991,2 44744  53.0516  35.8201 0002222 194.8090 165.2837 15.13779918330372
STARLINK-1042,44747,53.0474,0.0003465,15.43628987,433.04860997699234,437.77039770415377,1 44747U 19074AL  25315.27607806  .00028413  00000+0  62817-3 0  9993,2 44747  53.0474 300.2555 0003465 107.8236 252.3147 15.43628987331741
STARLINK-1043,44748,53.0541,0.0001397,15.06368115,546.341797749049,548.2767674404058,1 44748U 19074AM  25315.25731804  .00016254  00000+0  11085-2 0  9998,2 44748  53.0541  38.2803 0001397 107.1253 252.9889 15.06368115330342
STARLINK-1046,44751,53.0546,8.5e-05,15.06401909,546.6170530042964,547.7943612645086,1 44751U 19074AQ  25315.27203474  .00001126  00000+0  94425-4 0  9994,2 44751  53.0546  38.2145 0000850  75.3017 284.8066 15.06401909330347
STARLINK-1047,44752,53.0714,0.0002306,15.29514583,475.6815101577158,478.8432203449702,1 44752U 19074AR  25315.28060537  .00015066  00000+0  53076-3 0  9991,2 44752  53.0714 337.8943 0002306 186.7792 173.3177 15.29514583331203
STARLINK-1048,44753,53.0549,0.0001562,15.0639566,546.1431179226929,548.3066009675831,1 44753U 19074AS  25315.29783821  .00000370  00000+0  43763-4 0  9996,2 44753  53.0549 358.0995 0001562  92.4522 267.6646 15.06395660330901
STARLINK-1053,44758,53.0404,0.0004327,15.61885118,379.2867964301122,385.1372024542279,1 44758U 19074AX  25315.29684929  .00076324  00000+0  85981-3 0  9999,2 44758  53.0404 312.1945 0004327  61.4041 298.7407 15.61885118331562
STARLINK-1054,44759,53.0332,0.0006336,16.04462923,257.8693776930604,266.28385638857526,1 44759U 19074AY  25315.29464816  .00859932  38614-3  12649-2 0  9991,2 44759  53.0332 333.1611 0006336  25.9733 334.1615 16.04462923328904
STARLINK-1060,44765,53.0524,0.0005848,15.65683554,367.3265280555743,375.22063867387806,1 44765U 19074BE  25315.30247232  .00128747  00000+0  12372-2 0  9991,2 44765  53.0524 358.1115 0005848  14.3273 345.7907 15.65683554330904
STARLINK-1063,44768,53.0547,0.0001329,15.06406559,546.2710794691338,548.1118317726387,1 44768U 19074BH  25315.26097480  .00000541  00000+0  55202-4 0  9999,2 44768  53.0547  38.2660 0001329  87.8479 272.2662 15.06406559330350
STARLINK-1067,44771,53.0543,0.0002128,15.06408451,545.7119483001316,548.6593656229334,1 44771U 19074BL  25315.24991530  .00001847  00000+0  14283-3 0  9993,2 44771  53.0543  38.3154 0002128  96.9087 263.2144 15.06408451330340
STARLINK-1068,44772,53.0548,0.0001054,15.06406642,546.4612716472866,547.9211308321092,1 44772U 19074BM  25315.17435709  .00000550  00000+0  55810-4 0  9999,2 44772  53.0548  18.6540 0001054 102.6142 257.4965 15.06406642330605
STARLINK-1112,44925,53.0489,0.0003637,15.55687945,397.6883308429715,402.6188594218711,1 44925U 20001M   25314.87151919  .00053477  00000+0  76555-3 0  9999,2 44925  53.0489 114.1821 0003637 178.7238 181.3782 15.55687945322583
STARLINK-1114,44927,53.0521,0.0001178,15.06393189,546.4166242317879,548.048241270144,1 44927U 20001P   25315.27941930  .00004052  00000+0  29081-3 0  9993,2 44927  53.0521 158.1854 0001178  97.2740 262.8383 15.06393189322006
STARLINK-1123,44930,53.0569,0.0001704,15.06398579,546.0358329656465,548.3959932384314,1 44930U 20001S   25314.82973034  .00000960  00000+0  83318-4 0  9995,2 44930  53.0569 160.2032 0001704  94.1024 266.0160 15.06398579321938
STARLINK-1144,44933,53.0422,0.0007165,15.63777087,371.9182488589131,381.5980135819527,1 44933U 20001V   25315.33336806  .00216837  00000+0  22186-2 0  9991,2 44933  53.0422  88.4489 0007165 133.1435 194.4669 15.63777087  5950
STARLINK-1094,44941,53.0553,0.0001578,15.06390567,546.1476443109532,548.3332934401296,1 44941U 20001AD  25315.24072454  .00003771  00000+0  27201-3 0  9991,2 44941  53.0553 138.3589 0001578  89.7087 270.4083 15.06390567322274
STARLINK-1096,44942,52.9822,0.0006613,15.98399488,274.4565878333424,283.2611305567143,1 44942U 20001AE  25315.33336806  .00489648  11268-3  10250-2 0  9994,2 44942  52.9822 249.7190 0006613  98.5915 158.2666 15.98399488  5922
STARLINK-1122,44949,53.052,0.0001641,15.06407486,546.0521685881304,548.3250604548157,1 44949U 20001AM  25314.93108664  .00004656  00000+0  33118-3 0  9994,2 44949  53.0520 139.7420 0001641  93.3587 266.7590 15.06407486322227
STARLINK-1080,44961,53.0527,0.0001404,15.06400605,546.2373850238346,548.1820223782343,1 44961U 20001AZ  25314.73020207  .00000584  00000+0  58082-4 0  9996,2 44961  53.0527 120.6490 0001404  84.0204 276.0945 15.06400605322486
STARLINK-1090,44968,53.0532,0.0001509,15.06397101,546.1754065318501,548.2654794081382,1 44968U 20001BG  25314.86658091  .00001458  00000+0  11679-3 0  9996,2 44968  53.0532 120.0372 0001509  89.9178 270.1984 15.06397101322509
STARLINK-1107,44972,53.0069,0.0006752,15.73568049,344.16708760185884,353.2510205132585,1 44972U 20001BL  25315.33336806  .00268569  00000+0  18265-2 0  9996,2 44972  53.0069  27.3964 0006752 348.7904 169.7777 15.73568049  5914
STARLINK-1132,45044,53.0536,0.0001149,15.06418879,546.3579812255366,547.9494130277371,1 45044U 20006A   25314.62698859  .00005794  00000+0  40735-3 0  9999,2 45044  53.0536  81.1120 0001149  95.9327 264.1793 15.06418879318793
STARLINK-1131,45047,53.0535,0.0001427,15.06418875,546.1654704015746,548.1419483700338,1 45047U 20006D   25314.73577808  .00003002  00000+0  22022-3 0  9993,2 45047  53.0535 101.1621 0001427  89.5174 270.5978 15.06418875318525
STARLINK-1134,45048,53.0401,0.0012282,15.26667851,477.3514930892361,494.21202312665173,1 45048U 20006E   25297.87285069  .00016521  00000+0  63194-3 0  9999,2 45048  53.0401 155.6330 0012282 116.8822 243.3433 15.26667851316281
STARLINK-1156,45054,53.0539,0.0001427,15.0640347,546.2126771868652,548.1891686300633,1 45054U 20006L   25314.70624300  .00001756  00000+0  13672-3 0  9993,2 45054  53.0539 100.7553 0001427  89.5100 270.6052 15.06403470318524
STARLINK-1159,45057,53.0548,9.89e-05,15.45271307,429.9076246473778,431.25438906913405,1 45057U 20006P   25315.33336806  .01339935  00000+0  25301-1 0  9991,2 45057  53.0548  94.9353 0000989  89.2465  95.8313 15.45271307  5752
STARLINK-1166,45060,53.0539,0.0001862,15.06412472,545.8838405342385,548.4628261023663,1 45060U 20006S   25315.13012246  .00004611  00000+0  32812-3 0  9998,2 45060  53.0539  98.8526 0001862  98.1485 261.9715 15.06412472318591
STARLINK-1169,45061,53.054,0.0001265,15.06406093,546.3168296034682,548.0689380640779,1 45061U 20006T   25314.40767789  .00001834  00000+0  14196-3 0  9996,2 45061  53.0540 102.0968 0001265  92.0892 268.0242 15.06406093318487
STARLINK-1171,45062,53.0542,0.0003708,15.34966793,458.4831712731311,463.55508945941165,1 45062U 20006U   25315.33336806  .00144634  00000+0  41342-2 0  9990,2 45062  53.0542  93.5647 0003708 313.5021 197.0583 15.34966793  5769
STARLINK-1133,45064,53.0538,0.0001082,15.06394117,546.4802638797692,547.9789132095302,1 45064U 20006W   25314.33948910 -.00000644  00000+0 -24355-4 0  9997,2 45064  53.0538  82.3981 0001082  81.0044 279.1067 15.06394117318757
STARLINK-1167,45071,53.0558,0.0001363,15.06403217,546.2577746495763,548.1456219787378,1 45071U 20006AD  25314.36529352  .00001149  00000+0  95981-4 0  9995,2 45071  53.0558  82.2862 0001363  81.5187 278.5956 15.06403217318751
STARLINK-1168,45072,53.0536,0.00013,15.06397699,546.3183139515259,548.1189064101727,1 45072U 20006AE  25315.29783423 -.00001075  00000+0 -53283-4 0  9999,2 45072  53.0536  78.0984 0001300  81.6519 278.4618 15.06397699318892
STARLINK-1172,45074,53.0553,6.18e-05,15.06400278,546.7827194202227,547.6386923966729,1 45074U 20006AG  25315.30888968  .00000898  00000+0  79145-4 0  9998,2 45074  53.0553  78.0517 0000618   1.9617 358.1375 15.06400278318894
